CTC1_L_00407016-03
1 86462U 24899RT  26037.47805556  .00000000  00000+0  00000-0 0  9995
2 86462 100.0000 180.0000 0000000   0.0000   0.0000 12.90383911    16
CTC1_L_00407016-04
1 86463U 25764UI  26037.47805556  .00000000  00000+0  00000-0 0  9998
2 86463 100.0000 180.0000 0000000   0.0000  90.0000 12.90383911    16
CTC1_L_00407017-01
1 86464U 26721KN  26037.47805556  .00000000  00000+0  00000-0 0  9993
2 86464 100.0000 192.0000 0000000   0.0000 192.0000 12.90383911    13
CTC1_L_00407017-02
1 86465U 22113CF  26037.47805556  .00000000  00000+0  00000-0 0  9995
2 86465 100.0000 192.0000 0000000   0.0000 282.0000 12.90383911    14
CTC1_L_00407017-03
1 86466U 23223DE  26037.47805556  .00000000  00000+0  00000-0 0  9999
2 86466 100.0000 192.0000 0000000   0.0000  12.0000 12.90383911    16
CTC1_L_00407017-04
1 86467U 23186KS  26037.47805556  .00000000  00000+0  00000-0 0  9998
2 86467 100.0000 192.0000 0000000   0.0000 102.0000 12.90383911    17
CTC1_L_00407018-01
1 86468U 26574RR  26037.47805556  .00000000  00000+0  00000-0 0  9993
2 86468 100.0000 204.0000 0000000   0.0000 204.0000 12.90383911    15
CTC1_L_00407018-02
1 86469U 26202WI  26037.47805556  .00000000  00000+0  00000-0 0  9992
2 86469 100.0000 204.0000 0000000   0.0000 294.0000 12.90383911    15
CTC1_L_00407018-03
1 86470U 24885UE  26037.47805556  .00000000  00000+0  00000-0 0  9999
2 86470 100.0000 204.0000 0000000   0.0000  24.0000 12.90383911    18
CTC1_L_00407018-04
1 86471U 22040ZW  26037.47805556  .00000000  00000+0  00000-0 0  9991
2 86471 100.0000 204.0000 0000000   0.0000 114.0000 12.90383911    19
CTC1_L_00407019-01
1 86472U 22120SA  26037.47805556  .00000000  00000+0  00000-0 0  9991
2 86472 100.0000 216.0000 0000000   0.0000 216.0000 12.90383911    16
CTC1_L_00407019-02
1 86473U 26689T   26037.47805556  .00000000  00000+0  00000-0 0  9996
2 86473 100.0000 216.0000 0000000   0.0000 306.0000 12.90383911    17
CTC1_L_00407019-03
1 86474U 23350GN  26037.47805556  .00000000  00000+0  00000-0 0  9999
2 86474 100.0000 216.0000 0000000   0.0000  36.0000 12.90383911    18
CTC1_L_00407019-04
1 86475U 22579BV  26037.47805556  .00000000  00000+0  00000-0 0  9992
2 86475 100.0000 216.0000 0000000   0.0000 126.0000 12.90383911    19
CTC1_L_00407020-01
1 86476U 23872FY  26037.47805556  .00000000  00000+0  00000-0 0  9990
2 86476 100.0000 228.0000 0000000   0.0000 228.0000 12.90383911    16
CTC1_L_00407020-02
1 86477U 22844AD  26037.47805556  .00000000  00000+0  00000-0 0  9999
2 86477 100.0000 228.0000 0000000   0.0000 318.0000 12.90383911    17
CTC1_L_00407020-03
1 86478U 25500AE  26037.47805556  .00000000  00000+0  00000-0 0  9992
2 86478 100.0000 228.0000 0000000   0.0000  48.0000 12.90383911    18
CTC1_L_00407020-04
1 86479U 22119QM  26037.47805556  .00000000  00000+0  00000-0 0  9996
2 86479 100.0000 228.0000 0000000   0.0000 138.0000 12.90383911    19
CTC1_L_00407021-01
1 86480U 22079XA  26037.47805556  .00000000  00000+0  00000-0 0  9993
2 86480 100.0000 240.0000 0000000   0.0000 240.0000 12.90383911    19
CTC1_L_00407021-02
1 86481U 22224PL  26037.47805556  .00000000  00000+0  00000-0 0  9996
2 86481 100.0000 240.0000 0000000   0.0000 330.0000 12.90383911    10
CTC1_L_00407021-03
1 86482U 25336JP  26037.47805556  .00000000  00000+0  00000-0 0  9994
2 86482 100.0000 240.0000 0000000   0.0000  60.0000 12.90383911    11
CTC1_L_00407021-04
1 86483U 22324UT  26037.47805556  .00000000  00000+0  00000-0 0  9999
2 86483 100.0000 240.0000 0000000   0.0000 150.0000 12.90383911    12
CTC1_L_00407022-01
1 86484U 24115JH  26037.47805556  .00000000  00000+0  00000-0 0  9990
2 86484 100.0000 252.0000 0000000   0.0000 252.0000 12.90383911    19
CTC1_L_00407022-02
1 86485U 26330UM  26037.47805556  .00000000  00000+0  00000-0 0  9992
2 86485 100.0000 252.0000 0000000   0.0000 342.0000 12.90383911    10
CTC1_L_00407022-03
1 86486U 22328LA  26037.47805556  .00000000  00000+0  00000-0 0  9996
2 86486 100.0000 252.0000 0000000   0.0000  72.0000 12.90383911    11
CTC1_L_00407022-04
1 86487U 26896QT  26037.47805556  .00000000  00000+0  00000-0 0  9991
2 86487 100.0000 252.0000 0000000   0.0000 162.0000 12.90383911    12
CTC1_L_00407023-01
1 86488U 24576WW  26037.47805556  .00000000  00000+0  00000-0 0  9995
2 86488 100.0000 264.0000 0000000   0.0000 264.0000 12.90383911    19
CTC1_L_00407023-02
1 86489U 25438VI  26037.47805556  .00000000  00000+0  00000-0 0  9994
2 86489 100.0000 264.0000 0000000   0.0000 354.0000 12.90383911    10
CTC1_L_00407023-03
1 86490U 25905CV  26037.47805556  .00000000  00000+0  00000-0 0  9995
2 86490 100.0000 264.0000 0000000   0.0000  84.0000 12.90383911    12
CTC1_L_00407023-04
1 86491U 22421XM  26037.47805556  .00000000  00000+0  00000-0 0  9996
2 86491 100.0000 264.0000 0000000   0.0000 174.0000 12.90383911    13
CTC1_L_00407024-01
1 86492U 23756DB  26037.47805556  .00000000  00000+0  00000-0 0  9999
2 86492 100.0000 276.0000 0000000   0.0000 276.0000 12.90383911    10
CTC1_L_00407024-02
1 86493U 23656GO  26037.47805556  .00000000  00000+0  00000-0 0  9999
2 86493 100.0000 276.0000 0000000   0.0000   6.0000 12.90383911    12
CTC1_L_00407024-03
1 86494U 26770KZ  26037.47805556  .00000000  00000+0  00000-0 0  9990
2 86494 100.0000 276.0000 0000000   0.0000  96.0000 12.90383911    12
CTC1_L_00407024-04
1 86495U 26575WG  26037.47805556  .00000000  00000+0  00000-0 0  9994
2 86495 100.0000 276.0000 0000000   0.0000 186.0000 12.90383911    13
CTC1_L_00407025-01
1 86496U 22385PL  26037.47805556  .00000000  00000+0  00000-0 0  9990
2 86496 100.0000 288.0000 0000000   0.0000 288.0000 12.90383911    10
CTC1_L_00407025-02
1 86497U 26368TD  26037.47805556  .00000000  00000+0  00000-0 0  9996
2 86497 100.0000 288.0000 0000000   0.0000  18.0000 12.90383911    12
CTC1_L_00407025-03
1 86498U 25793ZS  26037.47805556  .00000000  00000+0  00000-0 0  9998
2 86498 100.0000 288.0000 0000000   0.0000 108.0000 12.90383911    13
CTC1_L_00407025-04
1 86499U 25078GU  26037.47805556  .00000000  00000+0  00000-0 0  9995
2 86499 100.0000 288.0000 0000000   0.0000 198.0000 12.90383911    13
CTC1_L_00407026-01
1 86500U 24076GC  26037.47805556  .00000000  00000+0  00000-0 0  9995
2 86500 100.0000 300.0000 0000000   0.0000 300.0000 12.90383911    16
CTC1_L_00407026-02
1 86501U 26426TF  26037.47805556  .00000000  00000+0  00000-0 0  9997
2 86501 100.0000 300.0000 0000000   0.0000  30.0000 12.90383911    17
CTC1_L_00407026-03
1 86502U 22422GH  26037.47805556  .00000000  00000+0  00000-0 0  9990
2 86502 100.0000 300.0000 0000000   0.0000 120.0000 12.90383911    18
CTC1_L_00407026-04
1 86503U 22406DF  26037.47805556  .00000000  00000+0  00000-0 0  9993
2 86503 100.0000 300.0000 0000000   0.0000 210.0000 12.90383911    19
CTC1_L_00407027-01
1 86504U 24173VB  26037.47805556  .00000000  00000+0  00000-0 0  9997
2 86504 100.0000 312.0000 0000000   0.0000 312.0000 12.90383911    16
CTC1_L_00407027-02
1 86505U 23609FB  26037.47805556  .00000000  00000+0  00000-0 0  9991
2 86505 100.0000 312.0000 0000000   0.0000  42.0000 12.90383911    17
CTC1_L_00407027-03
1 86506U 24811FG  26037.47805556  .00000000  00000+0  00000-0 0  9998
2 86506 100.0000 312.0000 0000000   0.0000 132.0000 12.90383911    18
CTC1_L_00407027-04
1 86507U 26737OE  26037.47805556  .00000000  00000+0  00000-0 0  9998
2 86507 100.0000 312.0000 0000000   0.0000 222.0000 12.90383911    19
CTC1_L_00407028-01
1 86508U 26648OW  26037.47805556  .00000000  00000+0  00000-0 0  9990
2 86508 100.0000 324.0000 0000000   0.0000 324.0000 12.90383911    16
CTC1_L_00407028-02
1 86509U 22901ED  26037.47805556  .00000000  00000+0  00000-0 0  9999
2 86509 100.0000 324.0000 0000000   0.0000  54.0000 12.90383911    17
CTC1_L_00407028-03
1 86510U 26046OI  26037.47805556  .00000000  00000+0  00000-0 0  9995
2 86510 100.0000 324.0000 0000000   0.0000 144.0000 12.90383911    19
CTC1_L_00407028-04
1 86511U 25927WP  26037.47805556  .00000000  00000+0  00000-0 0  9993
2 86511 100.0000 324.0000 0000000   0.0000 234.0000 12.90383911    10
CTC1_L_00407029-01
1 86512U 23905SI  26037.47805556  .00000000  00000+0  00000-0 0  9998
2 86512 100.0000 336.0000 0000000   0.0000 336.0000 12.90383911    17
CTC1_L_00407029-02
1 86513U 25824UZ  26037.47805556  .00000000  00000+0  00000-0 0  9991
2 86513 100.0000 336.0000 0000000   0.0000  66.0000 12.90383911    18
CTC1_L_00407029-03
1 86514U 25089HA  26037.47805556  .00000000  00000+0  00000-0 0  9995
2 86514 100.0000 336.0000 0000000   0.0000 156.0000 12.90383911    19
CTC1_L_00407029-04
1 86515U 24456ZC  26037.47805556  .00000000  00000+0  00000-0 0  9993
2 86515 100.0000 336.0000 0000000   0.0000 246.0000 12.90383911    10
CTC1_L_00407030-01
1 86516U 25541KN  26037.47805556  .00000000  00000+0  00000-0 0  9990
2 86516 100.0000 348.0000 0000000   0.0000 348.0000 12.90383911    17
CTC1_L_00407030-02
1 86517U 24359SQ  26037.47805556  .00000000  00000+0  00000-0 0  9997
2 86517 100.0000 348.0000 0000000   0.0000  78.0000 12.90383911    18
CTC1_L_00407030-03
1 86518U 24058D   26037.47805556  .00000000  00000+0  00000-0 0  9994
2 86518 100.0000 348.0000 0000000   0.0000 168.0000 12.90383911    19
CTC1_L_00407030-04
1 86519U 25086SH  26037.47805556  .00000000  00000+0  00000-0 0  9997
2 86519 100.0000 348.0000 0000000   0.0000 258.0000 12.90383911    10
